{
  "type": "FeatureCollection",
  "features": [
    {
      "type": "Feature",
      "properties": {
        "norad_id": 66528,
        "name": "STARLINK-35928",
        "group": "last-30-days",
        "lat": -28.41027456590586,
        "lon": 30.37205161978705,
        "alt_km": 416.8968170701846,
        "timestamp": "2025-12-10T16:57:10.415778+00:00",
        "meta_object_name": "STARLINK-35928",
        "meta_object_id": "2025-265N",
        "meta_epoch": "2025-12-10T12:00:02.998944",
        "meta_mean_motion": 15.50637497,
        "meta_eccentricity": 0.0001304,
        "meta_inclination": 43,
        "meta_ra_of_asc_node": 67.0644,
        "meta_arg_of_pericenter": 280.7325,
        "meta_mean_anomaly": 321.881,
        "meta_ephemeris_type": 0,
        "meta_classification_type": "U",
        "meta_norad_cat_id": 66528,
        "meta_element_set_no": 999,
        "meta_rev_at_epoch": 463,
        "meta_bstar": -0.0026262,
        "meta_mean_motion_dot": -0.00151776,
        "meta_mean_motion_ddot": 0,
        "tle_line1": "1 66528U 25265N   25344.50003471 -.00151776  00000+0 -26262-2 0  9993",
        "tle_line2": "2 66528  43.0000  67.0644 0001304 280.7325 321.8810 15.50637497  4631"
      },
      "geometry": {
        "type": "Point",
        "coordinates": [
          30.37205161978705,
          -28.41027456590586
        ]
      }
    },
    {
      "type": "Feature",
      "properties": {
        "norad_id": 66529,
        "name": "STARLINK-35933",
        "group": "last-30-days",
        "lat": -27.334468414227647,
        "lon": 32.161677823963934,
        "alt_km": 416.89486405061143,
        "timestamp": "2025-12-10T16:57:10.415790+00:00",
        "meta_object_name": "STARLINK-35933",
        "meta_object_id": "2025-265P",
        "meta_epoch": "2025-12-10T12:00:02.998944",
        "meta_mean_motion": 15.50631758,
        "meta_eccentricity": 0.0001486,
        "meta_inclination": 42.9997,
        "meta_ra_of_asc_node": 67.0597,
        "meta_arg_of_pericenter": 268.1217,
        "meta_mean_anomaly": 336.4086,
        "meta_ephemeris_type": 0,
        "meta_classification_type": "U",
        "meta_norad_cat_id": 66529,
        "meta_element_set_no": 999,
        "meta_rev_at_epoch": 463,
        "meta_bstar": -0.0024593,
        "meta_mean_motion_dot": -0.00142296,
        "meta_mean_motion_ddot": 0,
        "tle_line1": "1 66529U 25265P   25344.50003471 -.00142296  00000+0 -24593-2 0  9996",
        "tle_line2": "2 66529  42.9997  67.0597 0001486 268.1217 336.4086 15.50631758  4634"
      },
      "geometry": {
        "type": "Point",
        "coordinates": [
          32.161677823963934,
          -27.334468414227647
        ]
      }
    },
    {
      "type": "Feature",
      "properties": {
        "norad_id": 66530,
        "name": "STARLINK-35961",
        "group": "last-30-days",
        "lat": -26.23390932114493,
        "lon": 33.919848809952896,
        "alt_km": 416.7821065739581,
        "timestamp": "2025-12-10T16:57:10.415802+00:00",
        "meta_object_name": "STARLINK-35961",
        "meta_object_id": "2025-265Q",
        "meta_epoch": "2025-12-10T12:00:02.998944",
        "meta_mean_motion": 15.50640333,
        "meta_eccentricity": 0.000142,
        "meta_inclination": 42.9998,
        "meta_ra_of_asc_node": 67.0543,
        "meta_arg_of_pericenter": 274.3345,
        "meta_mean_anomaly": 332.1154,
        "meta_ephemeris_type": 0,
        "meta_classification_type": "U",
        "meta_norad_cat_id": 66530,
        "meta_element_set_no": 999,
        "meta_rev_at_epoch": 463,
        "meta_bstar": -0.0026625,
        "meta_mean_motion_dot": -0.00153845,
        "meta_mean_motion_ddot": 0,
        "tle_line1": "1 66530U 25265Q   25344.50003471 -.00153845  00000+0 -26625-2 0  9998",
        "tle_line2": "2 66530  42.9998  67.0543 0001420 274.3345 332.1154 15.50640333  4635"
      },
      "geometry": {
        "type": "Point",
        "coordinates": [
          33.919848809952896,
          -26.23390932114493
        ]
      }
    },
    {
      "type": "Feature",
      "properties": {
        "norad_id": 66531,
        "name": "STARLINK-35960",
        "group": "last-30-days",
        "lat": -25.095624037393723,
        "lon": 35.67116258307204,
        "alt_km": 416.8312639701762,
        "timestamp": "2025-12-10T16:57:10.415813+00:00",
        "meta_object_name": "STARLINK-35960",
        "meta_object_id": "2025-265R",
        "meta_epoch": "2025-12-10T12:00:02.998944",
        "meta_mean_motion": 15.50728487,
        "meta_eccentricity": 0.0001173,
        "meta_inclination": 42.9998,
        "meta_ra_of_asc_node": 67.0505,
        "meta_arg_of_pericenter": 268.0862,
        "meta_mean_anomaly": 340.2743,
        "meta_ephemeris_type": 0,
        "meta_classification_type": "U",
        "meta_norad_cat_id": 66531,
        "meta_element_set_no": 999,
        "meta_rev_at_epoch": 463,
        "meta_bstar": -0.0054253,
        "meta_mean_motion_dot": -0.0030805,
        "meta_mean_motion_ddot": 0,
        "tle_line1": "1 66531U 25265R   25344.50003471 -.00308050  00000+0 -54253-2 0  9997",
        "tle_line2": "2 66531  42.9998  67.0505 0001173 268.0862 340.2743 15.50728487  4634"
      },
      "geometry": {
        "type": "Point",
        "coordinates": [
          35.67116258307204,
          -25.095624037393723
        ]
      }
    },
    {
      "type": "Feature",
      "properties": {
        "norad_id": 66532,
        "name": "STARLINK-35914",
        "group": "last-30-days",
        "lat": -23.96680271444826,
        "lon": 37.344572422038084,
        "alt_km": 416.6464831785461,
        "timestamp": "2025-12-10T16:57:10.415825+00:00",
        "meta_object_name": "STARLINK-35914",
        "meta_object_id": "2025-265S",
        "meta_epoch": "2025-12-10T12:00:02.998944",
        "meta_mean_motion": 15.50698548,
        "meta_eccentricity": 0.0001334,
        "meta_inclination": 42.9995,
        "meta_ra_of_asc_node": 67.0451,
        "meta_arg_of_pericenter": 274.9048,
        "meta_mean_anomaly": 335.3703,
        "meta_ephemeris_type": 0,
        "meta_classification_type": "U",
        "meta_norad_cat_id": 66532,
        "meta_element_set_no": 999,
        "meta_rev_at_epoch": 463,
        "meta_bstar": -0.0045517,
        "meta_mean_motion_dot": -0.00259803,
        "meta_mean_motion_ddot": 0,
        "tle_line1": "1 66532U 25265S   25344.50003471 -.00259803  00000+0 -45517-2 0  9992",
        "tle_line2": "2 66532  42.9995  67.0451 0001334 274.9048 335.3703 15.50698548  4638"
      },
      "geometry": {
        "type": "Point",
        "coordinates": [
          37.344572422038084,
          -23.96680271444826
        ]
      }
    },
    {
      "type": "Feature",
      "properties": {
        "norad_id": 66533,
        "name": "STARLINK-35707",
        "group": "last-30-days",
        "lat": -22.820854905843184,
        "lon": 38.98853419681978,
        "alt_km": 416.64831465574207,
        "timestamp": "2025-12-10T16:57:10.415837+00:00",
        "meta_object_name": "STARLINK-35707",
        "meta_object_id": "2025-265T",
        "meta_epoch": "2025-12-10T12:00:02.998944",
        "meta_mean_motion": 15.50631822,
        "meta_eccentricity": 0.0001418,
        "meta_inclination": 42.9996,
        "meta_ra_of_asc_node": 67.0403,
        "meta_arg_of_pericenter": 270.9164,
        "meta_mean_anomaly": 341.2871,
        "meta_ephemeris_type": 0,
        "meta_classification_type": "U",
        "meta_norad_cat_id": 66533,
        "meta_element_set_no": 999,
        "meta_rev_at_epoch": 463,
        "meta_bstar": -0.0024159,
        "meta_mean_motion_dot": -0.00139832,
        "meta_mean_motion_ddot": 0,
        "tle_line1": "1 66533U 25265T   25344.50003471 -.00139832  00000+0 -24159-2 0  9991",
        "tle_line2": "2 66533  42.9996  67.0403 0001418 270.9164 341.2871 15.50631822  4639"
      },
      "geometry": {
        "type": "Point",
        "coordinates": [
          38.98853419681978,
          -22.820854905843184
        ]
      }
    },
    {
      "type": "Feature",
      "properties": {
        "norad_id": 66534,
        "name": "STARLINK-35976",
        "group": "last-30-days",
        "lat": -21.64579400254084,
        "lon": 40.62196246301692,
        "alt_km": 416.5656327569259,
        "timestamp": "2025-12-10T16:57:10.415847+00:00",
        "meta_object_name": "STARLINK-35976",
        "meta_object_id": "2025-265U",
        "meta_epoch": "2025-12-10T12:00:02.998944",
        "meta_mean_motion": 15.50642405,
        "meta_eccentricity": 0.0001434,
        "meta_inclination": 42.9997,
        "meta_ra_of_asc_node": 67.0357,
        "meta_arg_of_pericenter": 270.867,
        "meta_mean_anomaly": 343.251,
        "meta_ephemeris_type": 0,
        "meta_classification_type": "U",
        "meta_norad_cat_id": 66534,
        "meta_element_set_no": 999,
        "meta_rev_at_epoch": 463,
        "meta_bstar": -0.0027619,
        "meta_mean_motion_dot": -0.00159472,
        "meta_mean_motion_ddot": 0,
        "tle_line1": "1 66534U 25265U   25344.50003471 -.00159472  00000+0 -27619-2 0  9998",
        "tle_line2": "2 66534  42.9997  67.0357 0001434 270.8670 343.2510 15.50642405  4639"
      },
      "geometry": {
        "type": "Point",
        "coordinates": [
          40.62196246301692,
          -21.64579400254084
        ]
      }
    }
  ]
}